ARIANE 40 R/B           
1 20443U 90005H   26037.12536612  .00000366  00000+0  13011-3 0  9994
2 20443  98.3151  98.7163 0009014 303.1422  56.8901 14.39849097888260
DELTA 2 R/B(1)          
1 20453U 90008B   26037.08186883  .00077268  00000+0  10279-2 0  9991
2 20453  35.6065  21.5888 0095851 324.0484  35.3829 15.51612423921211
COSMOS 2058             
1 20465U 90010A   26037.06324346  .00005409  00000+0  32146-3 0  9999
2 20465  82.4633  78.5842 0012091  85.1173 275.1438 15.11029562937468
SL-14 R/B               
1 20466U 90010B   26037.18907672  .00000650  00000+0  75795-4 0  9993
2 20466  82.5032 296.9783 0020979  46.7412 313.5549 14.83541009923813
SL-14 R/B               
1 20511U 90018B   26037.04145711  .00000522  00000+0  62532-4 0  9998
2 20511  82.5185 252.6779 0015994 191.3744 168.7111 14.82112109917893
HST                     
1 20580U 90037B   26036.89949414  .00009561  00000+0  32208-3 0  9997
2 20580  28.4665 256.7833 0001910 115.5134 244.5659 15.28971962768447
SL-16 R/B               
1 20625U 90046B   26037.31002611  .00000082  00000+0  66868-4 0  9993
2 20625  70.9999   3.8134 0014581 343.2232  16.8406 14.15005288843955
COSMOS 2084             
1 20663U 90055A   26037.10642053  .00003594  00000+0  26172-3 0  9996
2 20663  62.7896  83.2811 0022103 183.4323 176.6629 15.05446581931562
SL-6 R/B(2)             
1 20666U 90055D   26036.97986805  .00004021  00000+0  30727-3 0  9996
2 20666  62.7852   1.6695 0020032 337.8166  22.2064 15.03423586933424
SL-8 R/B                
1 20775U 90078B   26037.11561343  .00020703  00000+0  61148-3 0  9991
2 20775  82.9022 279.6818 0367262 119.7813 244.0468 14.88018583804605
SL-8 R/B                
1 21088U 91006B   26036.96550384  .00000012  00000+0 -39552-5 0  9994
2 21088  82.9427 193.6321 0023544 122.6903 351.8214 13.77491933759708
OKEAN-3                 
1 21397U 91039A   26036.95794779  .00004849  00000+0  34303-3 0  9998
2 21397  82.5182   7.5748 0016438  80.6738 279.6346 15.04552001860267
COSMOS 2151             
1 21422U 91042A   26037.26453152  .00002529  00000+0  20109-3 0  9995
2 21422  82.4965 113.9891 0013113 159.3137 200.8621 14.99982617858485
SL-14 R/B               
1 21423U 91042B   26037.02030946  .00000497  00000+0  59867-4 0  9998
2 21423  82.4900 249.8869 0016774 350.3519   9.7370 14.81799343848380
ERS-1                   
1 21574U 91050A   26037.00007659  .00000466  00000+0  16398-3 0  9994
2 21574  98.7896  54.4378 0030977 297.2004  62.6026 14.39423069811170
ARIANE 40 R/B           
1 21610U 91050F   26037.12636759  .00000420  00000+0  13825-3 0  9999
2 21610  98.2078  90.5371 0003662 151.6461 208.4929 14.42869890814448
INTERCOSMOS 25          
1 21819U 91086A   26037.20133261  .00001072  00000+0  20776-3 0  9995
2 21819  82.6087 329.0361 1486652 184.7696 173.7737 12.11913022492878
SL-8 R/B                
1 21876U 92008B   26037.18363833  .00000071  00000+0  57699-4 0  9993
2 21876  82.9268 291.2160 0033708 221.2607 303.9106 13.75969506705086
SL-8 R/B                
1 21938U 92020B   26036.99366729  .00000137  00000+0  12653-3 0  9994
2 21938  82.9325 177.2878 0029471  28.6953 110.6269 13.75544599696772
USA 81                  
1 21949U 92023A   26037.29255873  .00000296  00000+0  10237-3 0  9992
2 21949  85.0120 149.5445 0002569 105.5448 254.6028 14.32356123 90291
COSMOS 2219             
1 22219U 92076A   26037.11310232 -.00000152  00000+0 -54746-4 0  9990
2 22219  71.0586  84.0822 0020447 250.6467 109.2445 14.14077010713917
SL-16 R/B               
1 22220U 92076B   26037.08869684  .00000223  00000+0  13513-3 0  9991
2 22220  70.9981 254.9417 0011675 152.3831  15.0982 14.16854801717355
COSMOS 2221             
1 22236U 92080A   26037.20347846  .00002860  00000+0  25202-3 0  9995
2 22236  82.5060 309.2348 0013062 303.2076  56.7893 14.96073088776082
SL-16 R/B               
1 22285U 92093B   26037.07923119 -.00000181  00000+0 -68524-4 0  9992
2 22285  71.0202  70.6273 0005085 326.6801  33.4001 14.15441420708688
COSMOS 2228             
1 22286U 92094A   26037.24041143  .00003075  00000+0  26379-3 0  9995
2 22286  82.5157 267.4258 0019271  50.6106 309.6820 14.97045860771357
SL-16 R/B               
1 22566U 93016B   26037.11649283 -.00000041  00000+0  35935-5 0  9997
2 22566  71.0075 281.4981 0010134 357.6791   2.4283 14.15304048697701
COSMOS 2242             
1 22626U 93024A   26037.14246716  .00003131  00000+0  27322-3 0  9991
2 22626  82.5194 296.8892 0017750  54.3971 305.8902 14.96417133775670
SL-16 R/B               
1 22803U 93059B   26037.06821177  .00000273  00000+0  15878-3 0  9994
2 22803  70.9892  77.8131 0019486 259.7844 100.1082 14.17226335675055
ARIANE 40 R/B           
1 22830U 93061H   26037.13501884  .00000282  00000+0  11900-3 0  9997
2 22830  98.4983 106.6348 0010977  23.7093 336.4595 14.32844052689588
COSMOS 2278             
1 23087U 94023A   26037.26693609 -.00000186  00000+0 -72300-4 0  9999
2 23087  71.0503 240.8397 0006508  72.6592 287.5242 14.14364332640361
SL-16 R/B               
1 23088U 94023B   26036.69143846 -.00000056  00000+0 -44594-5 0  9990
2 23088  70.9999 138.0886 0004441 315.1252  44.9511 14.15003659641562
SL-16 R/B               
1 23343U 94074B   26037.06431219  .00000677  00000+0  97476-4 0  9999
2 23343  97.7150  69.1571 0005870 336.5504  45.1574 14.79369839682574
SL-16 R/B               
1 23405U 94077B   26037.03887063 -.00000025  00000+0  11620-4 0  9995
2 23405  70.9814  59.0768 0004413 238.9694 121.0996 14.15556650611759
ARIANE 40+ R/B          
1 23561U 95021B   26037.18881965  .00000409  00000+0  14444-3 0  9990
2 23561  98.4562 109.0880 0005925 229.3307 154.3458 14.39748937614710
SL-16 R/B               
1 23705U 95058B   26036.97364074  .00000297  00000+0  17618-3 0  9994
2 23705  71.0188 246.8422 0012448 177.6527 182.4656 14.15490713563366
SL-16 R/B               
1 24298U 96051B   26037.01305544  .00000080  00000+0  70170-4 0  9992
2 24298  70.7566 242.2876 0017725 192.2013 167.8680 14.12406612517173
ORBVIEW 2 (SEASTAR)     
1 24883U 97037A   26036.98197502  .00000415  00000+0  16052-3 0  9995
2 24883  98.8511 200.4637 0002832 136.7634 223.3773 14.35469739503923
SL-16 R/B               
1 25400U 98043G   26036.87734015  .00000114  00000+0  66582-4 0  9993
2 25400  98.8203 350.0262 0010880 105.0710 255.1674 14.26041992434450
SL-16 R/B               
1 25407U 98045B   26037.00016004 -.00000149  00000+0 -51121-4 0  9992
2 25407  71.0085 248.2164 0005258  67.2212 292.9467 14.16185391422611
ISS (ZARYA)             
1 25544U 98067A   26037.21207386  .00012979  00000+0  24775-3 0  9992
2 25544  51.6316 227.9611 0011198  69.2605 290.9583 15.48432747551451
CZ-4B R/B               
1 25732U 99025C   26037.12105303  .00000064  00000+0  51715-4 0  9999
2 25732  98.6688  82.1414 0038158  76.2960 297.9881 14.18259010383695
OKEAN-O                 
1 25860U 99039A   26037.15288845  .00000996  00000+0  13767-3 0  9990
2 25860  97.9511  97.3541 0001902  88.2198 271.9232 14.80283085429721
SL-16 R/B               
1 25861U 99039B   26037.16257426  .00000805  00000+0  10896-3 0  9992
2 25861  98.0033  96.2949 0014834   5.2630 354.8736 14.81686441432190
DELTA 2 R/B             
1 25876U 99041E   26036.51380638  .00003074  00000+0  53163-3 0  9996
2 25876  51.7643  69.7686 0502400 253.3695 101.1518 14.11705587358486
HELIOS 1B               
1 25977U 99064A   26037.16797976  .00002446  00000+0  27578-3 0  9995
2 25977  98.1727 298.4809 0001945 119.3807 240.7603 14.87566587680579
TERRA                   
1 25994U 99068A   26037.28018944  .00000641  00000+0  13983-3 0  9992
2 25994  97.9659  91.9041 0000951 290.5278 133.9574 14.60980199390492
SL-16 R/B               
1 26070U 00006B   26036.79536744  .00000053  00000+0  51189-4 0  9998
2 26070  71.0028 164.8979 0018444 234.9444 124.9950 14.15820747344044
TITAN 4B R/B            
1 26474U 00047B   26037.22097574  .00005141  00000+0  32487-3 0  9995
2 26474  67.9895 128.9817 0036972  74.1641 286.3579 15.09300050388164
ENVISAT                 
1 27386U 02009A   26037.34051250  .00000204  00000+0  79936-4 0  9998
2 27386  98.3677 351.6950 0001302  90.9033  61.6939 14.39024999254664
IDEFIX & ARIANE 42P R/B 
1 27422U 02021B   26036.89179159  .00000435  00000+0  18190-3 0  9991
2 27422  98.5839 335.8848 0010720 283.2526  76.7461 14.31002794239475
AQUA                    
1 27424U 02022A   26037.27764523  .00001548  00000+0  31924-3 0  9998
2 27424  98.4120   4.0848 0001596  55.0437  50.0935 14.61898018264149
CZ-4B R/B               
1 27432U 02024C   26037.09505524  .00000061  00000+0  54295-4 0  9999
2 27432  98.8907  90.6503 0051117 112.4504 278.0191 14.14541952224772
MIDORI II (ADEOS-II)    
1 27597U 02056A   26037.30129235  .00000482  00000+0  20741-3 0  9996
2 27597  98.7716 355.5738 0002161  87.0872 273.0556 14.29260888205810
H-2A R/B                
1 27601U 02056E   26037.32430846  .00000460  00000+0  17600-3 0  9993
2 27601  98.3147 358.8952 0069015 254.9210 276.3099 14.33737999209613
CZ-4B R/B               
1 28059U 03049C   26036.95636211  .00000707  00000+0  17378-3 0  9992
2 28059  98.6844  30.6253 0047610 329.8466  29.9991 14.54984615181983
CZ-2C R/B               
1 28222U 04012C   26037.10282279  .00060730  00000+0  71810-3 0  9997
2 28222  97.7308  99.4830 0016222  69.4345 290.8650 15.60941550199341
SL-16 R/B               
1 28353U 04021B   26037.13131487  .00000028  00000+0  39422-4 0  9997
2 28353  71.0004 298.7234 0002857  88.7524 271.3926 14.14589375118373
CZ-4B R/B               
1 28415U 04035C   26037.03288249  .00012754  00000+0  45461-3 0  9997
2 28415  97.3547  71.6611 0034250  81.7311 278.7810 15.28475627175074
CZ-2C R/B               
1 28480U 04046B   26037.21247217  .00000222  00000+0  98092-4 0  9997
2 28480  98.1997 314.1511 0138230 247.8260 110.8205 14.26980783104010
